{"type": "FeatureCollection", "features": [{"type": "Feature", "properties": {"uf": "AC", "name": "Acre"}, "geometry": {"type": "Polygon", "coordinates": [[[-69.21000000000001, -11.17], [-66.41, -11.17], [-66.41, -8.770000000000001], [-69.21000000000001, -8.770000000000001], [-69.21000000000001, -11.17]]]}}, {"type": "Feature", "properties": {"uf": "AL", "name": "Alagoas"}, "geometry": {"type": "Polygon", "coordinates": [[[-37.14, -10.86], [-34.34, -10.86], [-34.34, -8.46], [-37.14, -8.46], [-37.14, -10.86]]]}}, {"type": "Feature", "properties": {"uf": "AP", "name": "Amapá"}, "geometry": {"type": "Polygon", "coordinates": [[[-52.449999999999996, -1.17], [-49.65, -1.17], [-49.65, 1.23], [-52.449999999999996, 1.23], [-52.449999999999996, -1.17]]]}}, {"type": "Feature", "properties": {"uf": "AM", "name": "Amazonas"}, "geometry": {"type": "Polygon", "coordinates": [[[-61.42, -4.3], [-58.620000000000005, -4.3], [-58.620000000000005, -1.9000000000000001], [-61.42, -1.9000000000000001], [-61.42, -4.3]]]}}, {"type": "Feature", "properties": {"uf": "BA", "name": "Bahia"}, "geometry": {"type": "Polygon", "coordinates": [[[-39.9, -14.17], [-37.1, -14.17], [-37.1, -11.770000000000001], [-39.9, -11.770000000000001], [-39.9, -14.17]]]}}, {"type": "Feature", "properties": {"uf": "CE", "name": "Ceará"}, "geometry": {"type": "Polygon", "coordinates": [[[-39.94, -4.93], [-37.14, -4.93], [-37.14, -2.5300000000000002], [-39.94, -2.5300000000000002], [-39.94, -4.93]]]}}, {"type": "Feature", "properties": {"uf": "DF", "name": "Distrito Federal"}, "geometry": {"type": "Polygon", "coordinates": [[[-49.28, -16.99], [-46.480000000000004, -16.99], [-46.480000000000004, -14.59], [-49.28, -14.59], [-49.28, -16.99]]]}}, {"type": "Feature", "properties": {"uf": "ES", "name": "Espírito Santo"}, "geometry": {"type": "Polygon", "coordinates": [[[-41.74, -21.52], [-38.940000000000005, -21.52], [-38.940000000000005, -19.12], [-41.74, -19.12], [-41.74, -21.52]]]}}, {"type": "Feature", "properties": {"uf": "GO", "name": "Goiás"}, "geometry": {"type": "Polygon", "coordinates": [[[-50.65, -17.88], [-47.85, -17.88], [-47.85, -15.48], [-50.65, -15.48], [-50.65, -17.88]]]}}, {"type": "Feature", "properties": {"uf": "MA", "name": "Maranhão"}, "geometry": {"type": "Polygon", "coordinates": [[[-45.699999999999996, -3.7299999999999995], [-42.9, -3.7299999999999995], [-42.9, -1.3299999999999998], [-45.699999999999996, -1.3299999999999998], [-45.699999999999996, -3.7299999999999995]]]}}, {"type": "Feature", "properties": {"uf": "MT", "name": "Mato Grosso"}, "geometry": {"type": "Polygon", "coordinates": [[[-57.5, -16.8], [-54.7, -16.8], [-54.7, -14.4], [-57.5, -14.4], [-57.5, -16.8]]]}}, {"type": "Feature", "properties": {"uf": "MS", "name": "Mato Grosso do Sul"}, "geometry": {"type": "Polygon", "coordinates": [[[-56.019999999999996, -21.65], [-53.22, -21.65], [-53.22, -19.25], [-56.019999999999996, -19.25], [-56.019999999999996, -21.65]]]}}, {"type": "Feature", "properties": {"uf": "MG", "name": "Minas Gerais"}, "geometry": {"type": "Polygon", "coordinates": [[[-45.339999999999996, -21.12], [-42.54, -21.12], [-42.54, -18.720000000000002], [-45.339999999999996, -18.720000000000002], [-45.339999999999996, -21.12]]]}}, {"type": "Feature", "properties": {"uf": "PA", "name": "Pará"}, "geometry": {"type": "Polygon", "coordinates": [[[-49.89, -2.65], [-47.09, -2.65], [-47.09, -0.25], [-49.89, -0.25], [-49.89, -2.65]]]}}, {"type": "Feature", "properties": {"uf": "PB", "name": "Paraíba"}, "geometry": {"type": "Polygon", "coordinates": [[[-36.26, -8.32], [-33.46, -8.32], [-33.46, -5.92], [-36.26, -5.92], [-36.26, -8.32]]]}}, {"type": "Feature", "properties": {"uf": "PR", "name": "Paraná"}, "geometry": {"type": "Polygon", "coordinates": [[[-50.67, -26.63], [-47.870000000000005, -26.63], [-47.870000000000005, -24.23], [-50.67, -24.23], [-50.67, -26.63]]]}}, {"type": "Feature", "properties": {"uf": "PE", "name": "Pernambuco"}, "geometry": {"type": "Polygon", "coordinates": [[[-36.28, -9.25], [-33.480000000000004, -9.25], [-33.480000000000004, -6.8500000000000005], [-36.28, -6.8500000000000005], [-36.28, -9.25]]]}}, {"type": "Feature", "properties": {"uf": "PI", "name": "Piauí"}, "geometry": {"type": "Polygon", "coordinates": [[[-44.199999999999996, -6.29], [-41.4, -6.29], [-41.4, -3.8899999999999997], [-44.199999999999996, -3.8899999999999997], [-44.199999999999996, -6.29]]]}}, {"type": "Feature", "properties": {"uf": "RJ", "name": "Rio de Janeiro"}, "geometry": {"type": "Polygon", "coordinates": [[[-44.6, -24.099999999999998], [-41.800000000000004, -24.099999999999998], [-41.800000000000004, -21.7], [-44.6, -21.7], [-44.6, -24.099999999999998]]]}}, {"type": "Feature", "properties": {"uf": "RN", "name": "Rio Grande do Norte"}, "geometry": {"type": "Polygon", "coordinates": [[[-36.6, -6.99], [-33.800000000000004, -6.99], [-33.800000000000004, -4.59], [-36.6, -4.59], [-36.6, -6.99]]]}}, {"type": "Feature", "properties": {"uf": "RS", "name": "Rio Grande do Sul"}, "geometry": {"type": "Polygon", "coordinates": [[[-52.629999999999995, -31.23], [-49.83, -31.23], [-49.83, -28.830000000000002], [-52.629999999999995, -28.830000000000002], [-52.629999999999995, -31.23]]]}}, {"type": "Feature", "properties": {"uf": "RO", "name": "Rondônia"}, "geometry": {"type": "Polygon", "coordinates": [[[-65.3, -9.959999999999999], [-62.5, -9.959999999999999], [-62.5, -7.56], [-65.3, -7.56], [-65.3, -9.959999999999999]]]}}, {"type": "Feature", "properties": {"uf": "RR", "name": "Roraima"}, "geometry": {"type": "Polygon", "coordinates": [[[-62.07, 1.6199999999999999], [-59.27, 1.6199999999999999], [-59.27, 4.02], [-62.07, 4.02], [-62.07, 1.6199999999999999]]]}}, {"type": "Feature", "properties": {"uf": "SC", "name": "Santa Catarina"}, "geometry": {"type": "Polygon", "coordinates": [[[-49.949999999999996, -28.79], [-47.15, -28.79], [-47.15, -26.39], [-49.949999999999996, -26.39], [-49.949999999999996, -28.79]]]}}, {"type": "Feature", "properties": {"uf": "SP", "name": "São Paulo"}, "geometry": {"type": "Polygon", "coordinates": [[[-48.04, -24.75], [-45.24, -24.75], [-45.24, -22.35], [-48.04, -22.35], [-48.04, -24.75]]]}}, {"type": "Feature", "properties": {"uf": "SE", "name": "Sergipe"}, "geometry": {"type": "Polygon", "coordinates": [[[-38.47, -12.11], [-35.67, -12.11], [-35.67, -9.71], [-38.47, -9.71], [-38.47, -12.11]]]}}, {"type": "Feature", "properties": {"uf": "TO", "name": "Tocantins"}, "geometry": {"type": "Polygon", "coordinates": [[[-49.73, -11.45], [-46.93, -11.45], [-46.93, -9.05], [-49.73, -9.05], [-49.73, -11.45]]]}}]}